STARLINK-1557
1 46034U 20055H   26061.25002314  .00072328  00000+0  42794-2 0  9990
2 46034  53.0698 159.9743 0000951  70.7979 351.6100 15.10800089  5836
